{"type": "FeatureCollection", "features": [ {"type": "Feature", "properties": {"norad_id": 64902, "name": "CO3D 2", "group": "resource", "lat": -66.17796216832029, "lon": 94.53757968572585, "alt_km": 512.7794006680615, "timestamp": "2025-12-27T06:41:30.556713+00:00", "meta": {"OBJECT_NAME": "CO3D 2", "OBJECT_ID": "2025-156D", "EPOCH": "2025-12-26T23:05:19.716000", "MEAN_MOTION": 15.2021209, "ECCENTRICITY": 7.745e-05, "INCLINATION": 97.4339, "RA_OF_ASC_NODE": 77.0238, "ARG_OF_PERICENTER": 61.5545, "MEAN_ANOMALY": 298.5768, "EPHEMERIS_TYPE": 0, "CLASSIFICATION_TYPE": "U", "NORAD_CAT_ID": 64902, "ELEMENT_SET_NO": 999, "REV_AT_EPOCH": 2336, "BSTAR": 0.00027035646, "MEAN_MOTION_DOT": 5.791e-05, "MEAN_MOTION_DDOT": 0}, "tle": {"line1": "1 64902U 25156D   25360.96203375  .00005791  00000+0  27036-3 0  9993", "line2": "2 64902  97.4339  77.0238 0000774  61.5545 298.5768 15.20212090 23360"}}, "geometry": {"type": "Point", "coordinates": [94.53757968572585, -66.17796216832029]}}, {"type": "Feature", "properties": {"norad_id": 64903, "name": "CO3D 1", "group": "resource", "lat": -67.0254705338346, "lon": 95.27438155169317, "alt_km": 512.9022585604298, "timestamp": "2025-12-27T06:41:30.556724+00:00", "meta": {"OBJECT_NAME": "CO3D 1", "OBJECT_ID": "2025-156E", "EPOCH": "2025-12-26T23:05:33.652320", "MEAN_MOTION": 15.20194226, "ECCENTRICITY": 8.603e-05, "INCLINATION": 97.4341, "RA_OF_ASC_NODE": 77.024, "ARG_OF_PERICENTER": 65.5839, "MEAN_ANOMALY": 294.5486, "EPHEMERIS_TYPE": 0, "CLASSIFICATION_TYPE": "U", "NORAD_CAT_ID": 64903, "ELEMENT_SET_NO": 999, "REV_AT_EPOCH": 2336, "BSTAR": 0.00066091722, "MEAN_MOTION_DOT": 0.00014264, "MEAN_MOTION_DDOT": 0}, "tle": {"line1": "1 64903U 25156E   25360.96219505  .00014264  00000+0  66092-3 0  9996", "line2": "2 64903  97.4341  77.0240 0000860  65.5839 294.5486 15.20194226 23366"}}, "geometry": {"type": "Point", "coordinates": [95.27438155169317, -67.0254705338346]}}, {"type": "Feature", "properties": {"norad_id": 66514, "name": "SENTINEL-6B", "group": "resource", "lat": 3.890735109157547, "lon": -49.49647483231518, "alt_km": 1339.5569323804384, "timestamp": "2025-12-27T06:41:30.556734+00:00", "meta": {"OBJECT_NAME": "SENTINEL-6B", "OBJECT_ID": "2025-264A", "EPOCH": "2025-12-26T18:32:03.291648", "MEAN_MOTION": 12.8092957, "ECCENTRICITY": 0.00079105, "INCLINATION": 66.0401, "RA_OF_ASC_NODE": 133.2883, "ARG_OF_PERICENTER": 269.9837, "MEAN_ANOMALY": 90.0272, "EPHEMERIS_TYPE": 0, "CLASSIFICATION_TYPE": "U", "NORAD_CAT_ID": 66514, "ELEMENT_SET_NO": 999, "REV_AT_EPOCH": 508, "BSTAR": 8.0357402e-05, "MEAN_MOTION_DOT": -4.3e-07, "MEAN_MOTION_DDOT": 0}, "tle": {"line1": "1 66514U 25264A   25360.77226032 -.00000043  00000+0  80357-4 0  9990", "line2": "2 66514  66.0401 133.2883 0007910 269.9837  90.0272 12.80929570  5086"}}, "geometry": {"type": "Point", "coordinates": [-49.49647483231518, 3.890735109157547]}}]}